STARLINK-3458           
1 51758U 22016AW  26182.16670139  .00050642  00000+0  23065-2 0  9993
2 51758  53.1608 159.1537 0001233  56.8105 350.8471 15.20212372  5789
STARLINK-3456           
1 51759U 22016AX  26182.16670139  .00049993  00000+0  21668-2 0  9998
2 51759  53.1613 159.1285 0001294  71.7154 355.4391 15.21915567  5737
STARLINK-3622           
1 51768U 22017A   26181.29520874  .00000689  00000+0  61354-4 0  9999
2 51768  53.1583 193.4387 0001122  83.0246 277.0873 15.08835954241041
STARLINK-3621           
1 51769U 22017B   26181.32432265  .00007375  00000+0  46621-3 0  9998
2 51769  53.2139 193.1697 0001537  47.9575 312.1549 15.09992637239619
STARLINK-3612           
1 51770U 22017C   26181.35776846 -.00000107  00000+0  11375-4 0  9995
2 51770  53.1588 193.1378 0001084  99.6118 260.4996 15.08832472239629
STARLINK-3614           
1 51771U 22017D   26182.01280946  .00000587  00000+0  54996-4 0  9998
2 51771  53.1588 190.2015 0000974  82.6713 277.4389 15.08832374239711
STARLINK-3623           
1 51772U 22017E   26182.00545111  .00000333  00000+0  39049-4 0  9997
2 51772  53.1591 190.2449 0001201  72.9448 287.1675 15.08832548239706
STARLINK-3624           
1 51773U 22017F   26181.34348209  .00001875  00000+0  13454-3 0  9996
2 51773  53.1842 193.2177 0001214  56.2404 303.8703 15.09217168239612
STARLINK-3629           
1 51774U 22017G   26181.26944958 -.00000017  00000+0  17022-4 0  9995
2 51774  53.1588 193.5545 0001122  75.8827 284.2289 15.08829217239564
STARLINK-3620           
1 51775U 22017H   26182.16670139  .00488145  00000+0  44145-2 0  9998
2 51775  53.2257 173.2322 0000921  70.9332 200.6176 15.66031878  5953
STARLINK-3608           
1 51776U 22017J   26181.33201015  .00000193  00000+0  30243-4 0  9999
2 51776  53.1588 193.2727 0001038  87.5096 272.6014 15.08831287239577
STARLINK-3625           
1 51777U 22017K   26181.99904757 -.00000206  00000+0  51444-5 0  9998
2 51777  53.1585 190.2455 0001001  76.5139 283.5963 15.08828143239702
STARLINK-3615           
1 51778U 22017L   26182.13516878 -.00001442  00000+0 -72580-4 0  9996
2 51778  53.1591 179.5392 0001393  71.7674 288.3469 15.08824175239687
STARLINK-3611           
1 51779U 22017M   26181.99537671 -.00000213  00000+0  47071-5 0  9996
2 51779  53.1586 190.3395 0001143  76.5998 283.5121 15.08828882239671
STARLINK-3617           
1 51780U 22017N   26181.31728482 -.00000267  00000+0  13359-5 0  9997
2 51780  53.1588 193.3302 0001251  63.1475 296.9644 15.08831591239420
STARLINK-3580           
1 51781U 22017P   26181.98336595 -.00001070  00000+0 -49166-4 0  9999
2 51781  53.1596 190.3081 0001257  67.0658 293.0466 15.08837268239521
STARLINK-3616           
1 51782U 22017Q   26182.16670139  .00735932  00000+0  21613-1 0  9999
2 51782  53.1654 198.2616 0001337  88.7774   1.8215 15.32396803  5739
STARLINK-3628           
1 51783U 22017R   26181.31260619  .00004221  00000+0  15843-3 0  9994
2 51783  53.1592 191.8742 0001292  64.0799 296.0335 15.29374674239440
STARLINK-3632           
1 51784U 22017S   26182.16670139  .01158006  00000+0  35416-1 0  9999
2 51784  53.1588 198.3061 0001835  69.2327  17.1548 15.30768787  5835
STARLINK-3646           
1 51785U 22017T   26181.31653995  .00005923  00000+0  21737-3 0  9998
2 51785  53.1600 191.9394 0001089 101.5939 258.5184 15.29361804239449
STARLINK-3638           
1 51786U 22017U   26182.16670139  .01149820  00000+0  46764-1 0  9993
2 51786  53.1591 199.1083 0001573  74.3333   1.3489 15.21280988  5782
STARLINK-3619           
1 51787U 22017V   26182.16670139 -.00007104  00000+0 -19939-3 0  9999
2 51787  53.1601 197.5796 0001007  94.0219 327.1444 15.34388600  5731
STARLINK-3641           
1 51788U 22017W   26182.16670139  .00065603  00000+0  28152-2 0  9992
2 51788  53.1605 199.1192 0002245  71.2393  59.4252 15.22128343  5835
STARLINK-3639           
1 51789U 22017X   26182.16670139  .00059616  00000+0  30577-2 0  9994
2 51789  53.1599 199.4136 0001576 126.8717 130.9925 15.16001820  5837
STARLINK-3631           
1 51790U 22017Y   26182.16876411  .00002432  00000+0  16824-3 0  9991
2 51790  53.2115 199.5906 0000669  41.6474 318.4569 15.09410161241109
STARLINK-3602           
1 51791U 22017Z   26182.16670139  .01176328  00000+0  48974-1 0  9997
2 51791  53.1591 199.1768 0001590  59.8658   0.2213 15.20409708  5780
STARLINK-3626           
1 51792U 22017AA  26182.16670139  .00061997  00000+0  27333-2 0  9999
2 51792  53.1606 199.1382 0001967  92.2555  87.9863 15.21233346  5737
STARLINK-3573           
1 51794U 22017AC  26182.16670139  .00844385  34160-3  16962-2 0  9995
2 51794  53.2132 176.3175 0000412  82.1864 272.5175 15.99188849  5994
STARLINK-3586           
1 51795U 22017AD  26182.16670139  .00053195  00000+0  22323-2 0  9997
2 51795  53.1609 199.2595 0001627  86.1851  55.2084 15.22984407  5830
STARLINK-3634           
1 51798U 22017AG  26182.16670139  .01127631  00000+0  36522-1 0  9993
2 51798  53.1605 198.3691 0001089  54.4603 283.2189 15.28969324  5837
