OBJECT_NAME,OBJECT_ID,EPOCH,MEAN_MOTION,ECCENTRICITY,INCLINATION,RA_OF_ASC_NODE,ARG_OF_PERICENTER,MEAN_ANOMALY,EPHEMERIS_TYPE,CLASSIFICATION_TYPE,NORAD_CAT_ID,ELEMENT_SET_NO,REV_AT_EPOCH,BSTAR,MEAN_MOTION_DOT,MEAN_MOTION_DDOT
STARLINK-3458,2022-016AW,2026-07-01T04:00:03.000096,15.20212372,.0001233,53.1608,159.1537,56.8105,350.8471,0,U,51758,999,578,.23065E-2,.50642E-3,0
STARLINK-3456,2022-016AX,2026-07-01T04:00:03.000096,15.21915567,.0001294,53.1613,159.1285,71.7154,355.4391,0,U,51759,999,573,.21668E-2,.49993E-3,0
STARLINK-3622,2022-017A,2026-06-30T07:05:06.035136,15.08835954,.00011224,53.1583,193.4387,83.0246,277.0873,0,U,51768,999,24104,.6135351E-4,.689E-5,0
STARLINK-3621,2022-017B,2026-06-30T07:47:01.476960,15.09992637,.00015372,53.2139,193.1697,47.9575,312.1549,0,U,51769,999,23961,.46621287E-3,.7375E-4,0
STARLINK-3612,2022-017C,2026-06-30T08:35:11.194944,15.08832472,.00010845,53.1588,193.1378,99.6118,260.4996,0,U,51770,999,23962,.1137456E-4,-.107E-5,0
STARLINK-3614,2022-017D,2026-07-01T00:18:26.737344,15.08832374,.0000974,53.1588,190.2015,82.6713,277.4389,0,U,51771,999,23971,.54996E-4,.587E-5,0
STARLINK-3623,2022-017E,2026-07-01T00:07:50.975904,15.08832548,.0001201,53.1591,190.2449,72.9448,287.1675,0,U,51772,999,23970,.39049E-4,.333E-5,0
STARLINK-3624,2022-017F,2026-06-30T08:14:36.852576,15.09217168,.00012147,53.1842,193.2177,56.2404,303.8703,0,U,51773,999,23961,.13453689E-3,.1875E-4,0
STARLINK-3629,2022-017G,2026-06-30T06:28:00.443712,15.08829217,.00011222,53.1588,193.5545,75.8827,284.2289,0,U,51774,999,23956,.17022203E-4,-.17E-6,0
STARLINK-3620,2022-017H,2026-07-01T04:00:03.000096,15.66031878,.0000921,53.2257,173.2322,70.9332,200.6176,0,U,51775,999,595,.44145E-2,.488145E-2,0
STARLINK-3608,2022-017J,2026-06-30T07:58:05.676960,15.08831287,.00010382,53.1588,193.2727,87.5096,272.6014,0,U,51776,999,23957,.3024321E-4,.193E-5,0
STARLINK-3625,2022-017K,2026-06-30T23:58:37.710048,15.08828143,.0001001,53.1585,190.2455,76.5139,283.5963,0,U,51777,999,23970,.51444E-5,-.206E-5,0
STARLINK-3615,2022-017L,2026-07-01T03:14:38.582592,15.08824175,.0001393,53.1591,179.5392,71.7674,288.3469,0,U,51778,999,23968,-.7258E-4,-.1442E-4,0
STARLINK-3611,2022-017M,2026-06-30T23:53:20.547744,15.08828882,.0001143,53.1586,190.3395,76.5998,283.5121,0,U,51779,999,23967,.47071E-5,-.213E-5,0
STARLINK-3617,2022-017N,2026-06-30T07:36:53.408448,15.08831591,.00012517,53.1588,193.3302,63.1475,296.9644,0,U,51780,999,23942,.1335879E-5,-.267E-5,0
STARLINK-3580,2022-017P,2026-06-30T23:36:02.818080,15.08837268,.0001257,53.1596,190.3081,67.0658,293.0466,0,U,51781,999,23952,-.49166E-4,-.107E-4,0
STARLINK-3616,2022-017Q,2026-07-01T04:00:03.000096,15.32396803,.0001337,53.1654,198.2616,88.7774,1.8215,0,U,51782,999,573,.21613E-1,.735932E-2,0
STARLINK-3628,2022-017R,2026-06-30T07:30:09.174816,15.29374674,.00012926,53.1592,191.8742,64.0799,296.0335,0,U,51783,999,23944,.158428E-3,.4221E-4,0
STARLINK-3632,2022-017S,2026-07-01T04:00:03.000096,15.30768787,.0001835,53.1588,198.3061,69.2327,17.1548,0,U,51784,999,583,.35416E-1,.1158006E-1,0
STARLINK-3646,2022-017T,2026-06-30T07:35:49.051680,15.29361804,.00010899,53.1600,191.9394,101.5939,258.5184,0,U,51785,999,23944,.21737012E-3,.5923E-4,0
STARLINK-3638,2022-017U,2026-07-01T04:00:03.000096,15.21280988,.0001573,53.1591,199.1083,74.3333,1.3489,0,U,51786,999,578,.46764E-1,.114982E-1,0
STARLINK-3619,2022-017V,2026-07-01T04:00:03.000096,15.34388600,.0001007,53.1601,197.5796,94.0219,327.1444,0,U,51787,999,573,-.19939E-3,-.7104E-4,0
STARLINK-3641,2022-017W,2026-07-01T04:00:03.000096,15.22128343,.0002245,53.1605,199.1192,71.2393,59.4252,0,U,51788,999,583,.28152E-2,.65603E-3,0
STARLINK-3639,2022-017X,2026-07-01T04:00:03.000096,15.16001820,.0001576,53.1599,199.4136,126.8717,130.9925,0,U,51789,999,583,.30577E-2,.59616E-3,0
STARLINK-3631,2022-017Y,2026-07-01T04:03:01.219104,15.09410161,.0000669,53.2115,199.5906,41.6474,318.4569,0,U,51790,999,24110,.16824E-3,.2432E-4,0
STARLINK-3602,2022-017Z,2026-07-01T04:00:03.000096,15.20409708,.000159,53.1591,199.1768,59.8658,0.2213,0,U,51791,999,578,.48974E-1,.1176328E-1,0
STARLINK-3626,2022-017AA,2026-07-01T04:00:03.000096,15.21233346,.0001967,53.1606,199.1382,92.2555,87.9863,0,U,51792,999,573,.27333E-2,.61997E-3,0
STARLINK-3573,2022-017AC,2026-07-01T04:00:03.000096,15.99188849,.0000412,53.2132,176.3175,82.1864,272.5175,0,U,51794,999,599,.16962E-2,.844385E-2,.3416E-3
STARLINK-3586,2022-017AD,2026-07-01T04:00:03.000096,15.22984407,.0001627,53.1609,199.2595,86.1851,55.2084,0,U,51795,999,583,.22323E-2,.53195E-3,0
STARLINK-3634,2022-017AG,2026-07-01T04:00:03.000096,15.28969324,.0001089,53.1605,198.3691,54.4603,283.2189,0,U,51798,999,583,.36522E-1,.1127631E-1,0
